{
  "type": "FeatureCollection",
  "features": [
    {
      "type": "Feature",
      "properties": {
        "norad_id": 41772,
        "name": "SKYSAT-C5",
        "group": "resource",
        "lat": 1.1556445011027394,
        "lon": 27.351490281309918,
        "alt_km": 464.2743031821701,
        "timestamp": "2025-12-09T14:52:25.823342+00:00",
        "meta_object_name": "SKYSAT-C5",
        "meta_object_id": "2016-058C",
        "meta_epoch": "2025-12-09T02:21:16.658208",
        "meta_mean_motion": 15.35258883,
        "meta_eccentricity": 0.00022673,
        "meta_inclination": 97.0758,
        "meta_ra_of_asc_node": 26.9942,
        "meta_arg_of_pericenter": 143.2849,
        "meta_mean_anomaly": 216.8551,
        "meta_ephemeris_type": 0,
        "meta_classification_type": "U",
        "meta_norad_cat_id": 41772,
        "meta_element_set_no": 999,
        "meta_rev_at_epoch": 51460,
        "meta_bstar": 0.00035120172,
        "meta_mean_motion_dot": 0.00011953,
        "meta_mean_motion_ddot": 0,
        "tle_line1": "1 41772U 16058C   25343.09810947  .00011953  00000+0  35120-3 0  9998",
        "tle_line2": "2 41772  97.0758  26.9942 0002267 143.2849 216.8551 15.35258883514601"
      },
      "geometry": {
        "type": "Point",
        "coordinates": [
          27.351490281309918,
          1.1556445011027394
        ]
      }
    },
    {
      "type": "Feature",
      "properties": {
        "norad_id": 41773,
        "name": "SKYSAT-C2",
        "group": "resource",
        "lat": -10.897270788441299,
        "lon": 9.64117037985745,
        "alt_km": 457.03335734091434,
        "timestamp": "2025-12-09T14:52:25.823352+00:00",
        "meta_object_name": "SKYSAT-C2",
        "meta_object_id": "2016-058D",
        "meta_epoch": "2025-12-09T00:51:36.970848",
        "meta_mean_motion": 15.37139367,
        "meta_eccentricity": 0.00046119,
        "meta_inclination": 97.0362,
        "meta_ra_of_asc_node": 7.7195,
        "meta_arg_of_pericenter": 43.8765,
        "meta_mean_anomaly": 316.2846,
        "meta_ephemeris_type": 0,
        "meta_classification_type": "U",
        "meta_norad_cat_id": 41773,
        "meta_element_set_no": 999,
        "meta_rev_at_epoch": 51579,
        "meta_bstar": 0.00037735434,
        "meta_mean_motion_dot": 0.00013655,
        "meta_mean_motion_ddot": 0,
        "tle_line1": "1 41773U 16058D   25343.03584457  .00013655  00000+0  37735-3 0  9992",
        "tle_line2": "2 41773  97.0362   7.7195 0004611  43.8765 316.2846 15.37139367515797"
      },
      "geometry": {
        "type": "Point",
        "coordinates": [
          9.64117037985745,
          -10.897270788441299
        ]
      }
    },
    {
      "type": "Feature",
      "properties": {
        "norad_id": 41774,
        "name": "SKYSAT-C3",
        "group": "resource",
        "lat": 79.22291452840624,
        "lon": -122.77206855198608,
        "alt_km": 425.2500825797051,
        "timestamp": "2025-12-09T14:52:25.823363+00:00",
        "meta_object_name": "SKYSAT-C3",
        "meta_object_id": "2016-058E",
        "meta_epoch": "2025-12-09T02:00:29.665152",
        "meta_mean_motion": 15.44198745,
        "meta_eccentricity": 0.00015972,
        "meta_inclination": 96.9299,
        "meta_ra_of_asc_node": 17.0002,
        "meta_arg_of_pericenter": 104.8504,
        "meta_mean_anomaly": 255.2922,
        "meta_ephemeris_type": 0,
        "meta_classification_type": "U",
        "meta_norad_cat_id": 41774,
        "meta_element_set_no": 999,
        "meta_rev_at_epoch": 51669,
        "meta_bstar": 0.00047403943,
        "meta_mean_motion_dot": 0.00021701,
        "meta_mean_motion_ddot": 0,
        "tle_line1": "1 41774U 16058E   25343.08367668  .00021701  00000+0  47404-3 0  9996",
        "tle_line2": "2 41774  96.9299  17.0002 0001597 104.8504 255.2922 15.44198745516695"
      },
      "geometry": {
        "type": "Point",
        "coordinates": [
          -122.77206855198608,
          79.22291452840624
        ]
      }
    },
    {
      "type": "Feature",
      "properties": {
        "norad_id": 41785,
        "name": "ALSAT 1B",
        "group": "resource",
        "lat": 45.92371906362311,
        "lon": -12.574596339652542,
        "alt_km": 647.369962413427,
        "timestamp": "2025-12-09T14:52:25.823379+00:00",
        "meta_object_name": "ALSAT 1B",
        "meta_object_id": "2016-059C",
        "meta_epoch": "2025-12-09T08:08:16.976832",
        "meta_mean_motion": 14.7206988,
        "meta_eccentricity": 0.00105949,
        "meta_inclination": 97.7811,
        "meta_ra_of_asc_node": 355.2753,
        "meta_arg_of_pericenter": 112.7343,
        "meta_mean_anomaly": 247.4986,
        "meta_ephemeris_type": 0,
        "meta_classification_type": "U",
        "meta_norad_cat_id": 41785,
        "meta_element_set_no": 999,
        "meta_rev_at_epoch": 49264,
        "meta_bstar": 0.0001193573,
        "meta_mean_motion_dot": 7.04e-06,
        "meta_mean_motion_ddot": 0,
        "tle_line1": "1 41785U 16059C   25343.33908538  .00000704  00000+0  11936-3 0  9995",
        "tle_line2": "2 41785  97.7811 355.2753 0010594 112.7343 247.4986 14.72069880492640"
      },
      "geometry": {
        "type": "Point",
        "coordinates": [
          -12.574596339652542,
          45.92371906362311
        ]
      }
    },
    {
      "type": "Feature",
      "properties": {
        "norad_id": 41787,
        "name": "PATHFINDER 1",
        "group": "resource",
        "lat": 0.9428095086138456,
        "lon": 166.66762692982712,
        "alt_km": 671.8802522292881,
        "timestamp": "2025-12-09T14:52:25.823389+00:00",
        "meta_object_name": "PATHFINDER 1",
        "meta_object_id": "2016-059E",
        "meta_epoch": "2025-12-08T23:20:03.761664",
        "meta_mean_motion": 14.67309943,
        "meta_eccentricity": 0.0030056,
        "meta_inclination": 97.8138,
        "meta_ra_of_asc_node": 345.9207,
        "meta_arg_of_pericenter": 92.6206,
        "meta_mean_anomaly": 267.844,
        "meta_ephemeris_type": 0,
        "meta_classification_type": "U",
        "meta_norad_cat_id": 41787,
        "meta_element_set_no": 999,
        "meta_rev_at_epoch": 49181,
        "meta_bstar": 0.0002191,
        "meta_mean_motion_dot": 1.198e-05,
        "meta_mean_motion_ddot": 0,
        "tle_line1": "1 41787U 16059E   25342.97226576  .00001198  00000+0  21910-3 0  9992",
        "tle_line2": "2 41787  97.8138 345.9207 0030056  92.6206 267.8440 14.67309943491814"
      },
      "geometry": {
        "type": "Point",
        "coordinates": [
          166.66762692982712,
          0.9428095086138456
        ]
      }
    },
    {
      "type": "Feature",
      "properties": {
        "norad_id": 41790,
        "name": "SCATSAT 1",
        "group": "resource",
        "lat": 39.633911504778105,
        "lon": 33.43702922534993,
        "alt_km": 634.7124223321789,
        "timestamp": "2025-12-09T14:52:25.823400+00:00",
        "meta_object_name": "SCATSAT 1",
        "meta_object_id": "2016-059H",
        "meta_epoch": "2025-12-09T03:19:31.895040",
        "meta_mean_motion": 14.78916478,
        "meta_eccentricity": 0.00560805,
        "meta_inclination": 98.1466,
        "meta_ra_of_asc_node": 39.7639,
        "meta_arg_of_pericenter": 139.3888,
        "meta_mean_anomaly": 221.1527,
        "meta_ephemeris_type": 0,
        "meta_classification_type": "U",
        "meta_norad_cat_id": 41790,
        "meta_element_set_no": 999,
        "meta_rev_at_epoch": 7349,
        "meta_bstar": 0.00029702925,
        "meta_mean_motion_dot": 2.192e-05,
        "meta_mean_motion_ddot": 0,
        "tle_line1": "1 41790U 16059H   25343.13856360  .00002192  00000+0  29703-3 0  9998",
        "tle_line2": "2 41790  98.1466  39.7639 0056080 139.3888 221.1527 14.78916478 73491"
      },
      "geometry": {
        "type": "Point",
        "coordinates": [
          33.43702922534993,
          39.633911504778105
        ]
      }
    },
    {
      "type": "Feature",
      "properties": {
        "norad_id": 41875,
        "name": "GOKTURK 1A",
        "group": "resource",
        "lat": -52.71055250970327,
        "lon": -113.13662614548187,
        "alt_km": 691.7728260030144,
        "timestamp": "2025-12-09T14:52:25.823410+00:00",
        "meta_object_name": "GOKTURK 1A",
        "meta_object_id": "2016-073A",
        "meta_epoch": "2025-12-09T06:54:34.091712",
        "meta_mean_motion": 14.62773388,
        "meta_eccentricity": 0.00012594,
        "meta_inclination": 98.1428,
        "meta_ra_of_asc_node": 235.6988,
        "meta_arg_of_pericenter": 77.2419,
        "meta_mean_anomaly": 282.8923,
        "meta_ephemeris_type": 0,
        "meta_classification_type": "U",
        "meta_norad_cat_id": 41875,
        "meta_element_set_no": 999,
        "meta_rev_at_epoch": 48106,
        "meta_bstar": 0.00017455792,
        "meta_mean_motion_dot": 8.43e-06,
        "meta_mean_motion_ddot": 0,
        "tle_line1": "1 41875U 16073A   25343.28789458  .00000843  00000+0  17456-3 0  9990",
        "tle_line2": "2 41875  98.1428 235.6988 0001259  77.2419 282.8923 14.62773388481069"
      },
      "geometry": {
        "type": "Point",
        "coordinates": [
          -113.13662614548187,
          -52.71055250970327
        ]
      }
    }
  ]
}